STARLINK-36221          
1 67215U 25304Z   26014.91667824 -.00004190  00000+0 -92351-4 0  9990
2 67215  70.0004 314.7610 0003009 278.4646  15.9743 15.42710512  5793
STARLINK-36212          
1 67216U 25304AA  26014.91667824 -.02420813  00000+0 -56161-1 0  9993
2 67216  70.0011 314.7317 0003957 272.3912  42.0746 15.45687514  5799
STARLINK-36216          
1 67217U 25304AB  26014.91667824 -.01995839  00000+0 -42566-1 0  9992
2 67217  70.0011 314.7151 0003404 262.1310  66.2142 15.48007071  5797
STARLINK-36211          
1 67218U 25304AC  26014.92083520 -.00452413  00000+0 -81788-2 0  9994
2 67218  70.0004 314.6992 0003354 275.4287  84.6516 15.51115910  5689
DISKSAT C               
1 67219U 25305A   26014.78462752  .00005901  00000+0  40994-3 0  9997
2 67219  45.0015 175.8978 0001837  27.8770 332.2203 15.06402819  4169
DISKSAT B               
1 67220U 25305B   26014.78557857  .00005298  00000+0  37045-3 0  9992
2 67220  45.0013 175.9037 0001536  33.0449 327.0521 15.06332316  4163
DISKSAT D               
1 67221U 25305C   26014.72006218  .00005317  00000+0  37205-3 0  9997
2 67221  45.0014 176.2602 0001898  42.6300 317.4722 15.06298918  4154
DISKSAT A               
1 67222U 25305D   26014.72124707  .00005979  00000+0  41670-3 0  9997
2 67222  45.0018 176.2688 0001841  53.0539 307.0504 15.06263863  4144
ELECTRON KICK STAGE R/B 
1 67223U 25305E   26014.82738983  .00075040  99988-5  64769-3 0  9995
2 67223  44.9837 165.2863 0162184 299.7781  58.7066 15.53915816  4294
TJS-23                  
1 67226U 25306A   26014.02638212  .00000043  00000+0  00000+0 0  9991
2 67226   5.9383 298.2831 0000502  60.1468 300.0577  1.00269976   347
CZ-5 R/B                
1 67227U 25306B   26014.14624916  .00006763  00000+0  18958-2 0  9990
2 67227  16.2725 290.8683 7577903 194.1146 117.2677  1.92528837   498
QPS-SAR-15              
1 67228U 25307A   26014.98102965  .00002780  00000+0  25056-3 0  9992
2 67228  42.0083 348.2939 0007715  69.2191 290.9460 14.97367636  3702
