CCSDS_OMM_VERS = 2.0
CREATION_DATE  = 
ORIGINATOR     = 

OBJECT_NAME    = STARLINK-36221
OBJECT_ID      = 2025-304Z
CENTER_NAME    = EARTH
REF_FRAME      = TEME
TIME_SYSTEM    = UTC
MEAN_ELEMENT_THEORY = SGP/SGP4

EPOCH          = 2026-01-14T22:00:00.999936
MEAN_MOTION    = 15.42710512
ECCENTRICITY   = .00030097
INCLINATION    = 70.0004
RA_OF_ASC_NODE = 314.7610
ARG_OF_PERICENTER = 278.4646
MEAN_ANOMALY   = 15.9743

EPHEMERIS_TYPE = 0
CLASSIFICATION_TYPE = U
NORAD_CAT_ID   = 67215
ELEMENT_SET_NO = 999
REV_AT_EPOCH   = 579
BSTAR          = -.92351218E-4
MEAN_MOTION_DOT = -.419E-4
MEAN_MOTION_DDOT = 0

CCSDS_OMM_VERS = 2.0
CREATION_DATE  = 
ORIGINATOR     = 

OBJECT_NAME    = STARLINK-36212
OBJECT_ID      = 2025-304AA
CENTER_NAME    = EARTH
REF_FRAME      = TEME
TIME_SYSTEM    = UTC
MEAN_ELEMENT_THEORY = SGP/SGP4

EPOCH          = 2026-01-14T22:00:00.999936
MEAN_MOTION    = 15.45687514
ECCENTRICITY   = .00039575
INCLINATION    = 70.0011
RA_OF_ASC_NODE = 314.7317
ARG_OF_PERICENTER = 272.3912
MEAN_ANOMALY   = 42.0746

EPHEMERIS_TYPE = 0
CLASSIFICATION_TYPE = U
NORAD_CAT_ID   = 67216
ELEMENT_SET_NO = 999
REV_AT_EPOCH   = 579
BSTAR          = -.56160941E-1
MEAN_MOTION_DOT = -.2420813E-1
MEAN_MOTION_DDOT = 0

CCSDS_OMM_VERS = 2.0
CREATION_DATE  = 
ORIGINATOR     = 

OBJECT_NAME    = STARLINK-36216
OBJECT_ID      = 2025-304AB
CENTER_NAME    = EARTH
REF_FRAME      = TEME
TIME_SYSTEM    = UTC
MEAN_ELEMENT_THEORY = SGP/SGP4

EPOCH          = 2026-01-14T22:00:00.999936
MEAN_MOTION    = 15.48007071
ECCENTRICITY   = .00034048
INCLINATION    = 70.0011
RA_OF_ASC_NODE = 314.7151
ARG_OF_PERICENTER = 262.1310
MEAN_ANOMALY   = 66.2142

EPHEMERIS_TYPE = 0
CLASSIFICATION_TYPE = U
NORAD_CAT_ID   = 67217
ELEMENT_SET_NO = 999
REV_AT_EPOCH   = 579
BSTAR          = -.42566187E-1
MEAN_MOTION_DOT = -.1995839E-1
MEAN_MOTION_DDOT = 0

CCSDS_OMM_VERS = 2.0
CREATION_DATE  = 
ORIGINATOR     = 

OBJECT_NAME    = STARLINK-36211
OBJECT_ID      = 2025-304AC
CENTER_NAME    = EARTH
REF_FRAME      = TEME
TIME_SYSTEM    = UTC
MEAN_ELEMENT_THEORY = SGP/SGP4

EPOCH          = 2026-01-14T22:06:00.161280
MEAN_MOTION    = 15.51115910
ECCENTRICITY   = .00033545
INCLINATION    = 70.0004
RA_OF_ASC_NODE = 314.6992
ARG_OF_PERICENTER = 275.4287
MEAN_ANOMALY   = 84.6516

EPHEMERIS_TYPE = 0
CLASSIFICATION_TYPE = U
NORAD_CAT_ID   = 67218
ELEMENT_SET_NO = 999
REV_AT_EPOCH   = 568
BSTAR          = -.81787588E-2
MEAN_MOTION_DOT = -.452413E-2
MEAN_MOTION_DDOT = 0

CCSDS_OMM_VERS = 2.0
CREATION_DATE  = 
ORIGINATOR     = 

OBJECT_NAME    = DISKSAT C
OBJECT_ID      = 2025-305A
CENTER_NAME    = EARTH
REF_FRAME      = TEME
TIME_SYSTEM    = UTC
MEAN_ELEMENT_THEORY = SGP/SGP4

EPOCH          = 2026-01-14T18:49:51.817728
MEAN_MOTION    = 15.06402819
ECCENTRICITY   = .0001837
INCLINATION    = 45.0015
RA_OF_ASC_NODE = 175.8978
ARG_OF_PERICENTER = 27.8770
MEAN_ANOMALY   = 332.2203

EPHEMERIS_TYPE = 0
CLASSIFICATION_TYPE = U
NORAD_CAT_ID   = 67219
ELEMENT_SET_NO = 999
REV_AT_EPOCH   = 416
BSTAR          = .40994E-3
MEAN_MOTION_DOT = .5901E-4
MEAN_MOTION_DDOT = 0

CCSDS_OMM_VERS = 2.0
CREATION_DATE  = 
ORIGINATOR     = 

OBJECT_NAME    = DISKSAT B
OBJECT_ID      = 2025-305B
CENTER_NAME    = EARTH
REF_FRAME      = TEME
TIME_SYSTEM    = UTC
MEAN_ELEMENT_THEORY = SGP/SGP4

EPOCH          = 2026-01-14T18:51:13.988448
MEAN_MOTION    = 15.06332316
ECCENTRICITY   = .0001536
INCLINATION    = 45.0013
RA_OF_ASC_NODE = 175.9037
ARG_OF_PERICENTER = 33.0449
MEAN_ANOMALY   = 327.0521

EPHEMERIS_TYPE = 0
CLASSIFICATION_TYPE = U
NORAD_CAT_ID   = 67220
ELEMENT_SET_NO = 999
REV_AT_EPOCH   = 416
BSTAR          = .37045E-3
MEAN_MOTION_DOT = .5298E-4
MEAN_MOTION_DDOT = 0

CCSDS_OMM_VERS = 2.0
CREATION_DATE  = 
ORIGINATOR     = 

OBJECT_NAME    = DISKSAT D
OBJECT_ID      = 2025-305C
CENTER_NAME    = EARTH
REF_FRAME      = TEME
TIME_SYSTEM    = UTC
MEAN_ELEMENT_THEORY = SGP/SGP4

EPOCH          = 2026-01-14T17:16:53.372352
MEAN_MOTION    = 15.06298918
ECCENTRICITY   = .00018989
INCLINATION    = 45.0014
RA_OF_ASC_NODE = 176.2602
ARG_OF_PERICENTER = 42.6300
MEAN_ANOMALY   = 317.4722

EPHEMERIS_TYPE = 0
CLASSIFICATION_TYPE = U
NORAD_CAT_ID   = 67221
ELEMENT_SET_NO = 999
REV_AT_EPOCH   = 415
BSTAR          = .37204589E-3
MEAN_MOTION_DOT = .5317E-4
MEAN_MOTION_DDOT = 0

CCSDS_OMM_VERS = 2.0
CREATION_DATE  = 
ORIGINATOR     = 

OBJECT_NAME    = DISKSAT A
OBJECT_ID      = 2025-305D
CENTER_NAME    = EARTH
REF_FRAME      = TEME
TIME_SYSTEM    = UTC
MEAN_ELEMENT_THEORY = SGP/SGP4

EPOCH          = 2026-01-14T17:18:35.746848
MEAN_MOTION    = 15.06263863
ECCENTRICITY   = .0001841
INCLINATION    = 45.0018
RA_OF_ASC_NODE = 176.2688
ARG_OF_PERICENTER = 53.0539
MEAN_ANOMALY   = 307.0504

EPHEMERIS_TYPE = 0
CLASSIFICATION_TYPE = U
NORAD_CAT_ID   = 67222
ELEMENT_SET_NO = 999
REV_AT_EPOCH   = 414
BSTAR          = .4167E-3
MEAN_MOTION_DOT = .5979E-4
MEAN_MOTION_DDOT = 0

CCSDS_OMM_VERS = 2.0
CREATION_DATE  = 
ORIGINATOR     = 

OBJECT_NAME    = ELECTRON KICK STAGE R/B
OBJECT_ID      = 2025-305E
CENTER_NAME    = EARTH
REF_FRAME      = TEME
TIME_SYSTEM    = UTC
MEAN_ELEMENT_THEORY = SGP/SGP4

EPOCH          = 2026-01-14T19:51:26.481312
MEAN_MOTION    = 15.53915816
ECCENTRICITY   = .0162184
INCLINATION    = 44.9837
RA_OF_ASC_NODE = 165.2863
ARG_OF_PERICENTER = 299.7781
MEAN_ANOMALY   = 58.7066

EPHEMERIS_TYPE = 0
CLASSIFICATION_TYPE = U
NORAD_CAT_ID   = 67223
ELEMENT_SET_NO = 999
REV_AT_EPOCH   = 429
BSTAR          = .64769E-3
MEAN_MOTION_DOT = .7504E-3
MEAN_MOTION_DDOT = .99988E-5

CCSDS_OMM_VERS = 2.0
CREATION_DATE  = 
ORIGINATOR     = 

OBJECT_NAME    = TJS-23
OBJECT_ID      = 2025-306A
CENTER_NAME    = EARTH
REF_FRAME      = TEME
TIME_SYSTEM    = UTC
MEAN_ELEMENT_THEORY = SGP/SGP4

EPOCH          = 2026-01-14T00:37:59.415168
MEAN_MOTION    = 1.00269976
ECCENTRICITY   = .0000502
INCLINATION    = 5.9383
RA_OF_ASC_NODE = 298.2831
ARG_OF_PERICENTER = 60.1468
MEAN_ANOMALY   = 300.0577

EPHEMERIS_TYPE = 0
CLASSIFICATION_TYPE = U
NORAD_CAT_ID   = 67226
ELEMENT_SET_NO = 999
REV_AT_EPOCH   = 34
BSTAR          = 0
MEAN_MOTION_DOT = .43E-6
MEAN_MOTION_DDOT = 0

CCSDS_OMM_VERS = 2.0
CREATION_DATE  = 
ORIGINATOR     = 

OBJECT_NAME    = CZ-5 R/B
OBJECT_ID      = 2025-306B
CENTER_NAME    = EARTH
REF_FRAME      = TEME
TIME_SYSTEM    = UTC
MEAN_ELEMENT_THEORY = SGP/SGP4

EPOCH          = 2026-01-14T03:30:35.927424
MEAN_MOTION    = 1.92528837
ECCENTRICITY   = .75779031
INCLINATION    = 16.2725
RA_OF_ASC_NODE = 290.8683
ARG_OF_PERICENTER = 194.1146
MEAN_ANOMALY   = 117.2677

EPHEMERIS_TYPE = 0
CLASSIFICATION_TYPE = U
NORAD_CAT_ID   = 67227
ELEMENT_SET_NO = 999
REV_AT_EPOCH   = 49
BSTAR          = .18958467E-2
MEAN_MOTION_DOT = .6763E-4
MEAN_MOTION_DDOT = 0

CCSDS_OMM_VERS = 2.0
CREATION_DATE  = 
ORIGINATOR     = 

OBJECT_NAME    = QPS-SAR-15
OBJECT_ID      = 2025-307A
CENTER_NAME    = EARTH
REF_FRAME      = TEME
TIME_SYSTEM    = UTC
MEAN_ELEMENT_THEORY = SGP/SGP4

EPOCH          = 2026-01-14T23:32:40.961760
MEAN_MOTION    = 14.97367636
ECCENTRICITY   = .00077154
INCLINATION    = 42.0083
RA_OF_ASC_NODE = 348.2939
ARG_OF_PERICENTER = 69.2191
MEAN_ANOMALY   = 290.9460

EPHEMERIS_TYPE = 0
CLASSIFICATION_TYPE = U
NORAD_CAT_ID   = 67228
ELEMENT_SET_NO = 999
REV_AT_EPOCH   = 370
BSTAR          = .2505632E-3
MEAN_MOTION_DOT = .278E-4
MEAN_MOTION_DDOT = 0

